     2              NAVIGATION DATA                         RINEX VERSION / TYPE
CCRINEXN V1.6.0 UX  CDDIS               26-NOV-12 15:33     PGM / RUN BY / DATE 
IGS BROADCAST EPHEMERIS FILE                                COMMENT             
    0.1956D-07 -0.1490D-07 -0.1192D-06  0.1788D-06          ION ALPHA           
    0.1290D+06 -0.1475D+06  0.0000D+00 -0.6554D+05          ION BETA            
   -0.186264514923D-08-0.621724893790D-14   233472      692 DELTA-UTC: A0,A1,T,W
    16                                                      LEAP SECONDS        
                                                            END OF HEADER       
18 12 11 25 19 59 44.0 0.226365868002D-03 0.181898940355D-11 0.000000000000D+00
    0.600000000000D+01 0.674687500000D+02 0.500699427569D-08 0.200199698390D+01
    0.335089862347D-05 0.136123235570D-01 0.105760991573D-04 0.515375489807D+04
    0.719840000000D+05-0.195577740669D-06 0.284683694817D+01-0.324100255966D-06
    0.928802485563D+00 0.159281250000D+03-0.213640193289D+01-0.811748098281D-08
   -0.932181686252D-10 0.100000000000D+01 0.171600000000D+04 0.000000000000D+00
    0.200000000000D+01 0.000000000000D+00-0.107102096081D-07 0.600000000000D+01
    0.704280000000D+05 0.400000000000D+01 0.000000000000D+00 0.000000000000D+00
21 12 11 25 19 59 44.0-0.264470931143D-03-0.238742359215D-11 0.000000000000D+00
    0.120000000000D+02-0.386562500000D+02 0.534093675717D-08 0.311525124679D+01
   -0.214204192162D-05 0.194878252223D-01 0.730715692043D-05 0.515376654243D+04
    0.719840000000D+05 0.465661287308D-07 0.179768453710D+01-0.307336449623D-06
    0.931014583009D+00 0.223000000000D+03-0.220180719205D+01-0.807462205471D-08
   -0.389659088008D-09 0.100000000000D+01 0.171600000000D+04 0.000000000000D+00
    0.200000000000D+01 0.000000000000D+00-0.111758708954D-07 0.120000000000D+02
    0.648180000000D+05 0.400000000000D+01 0.000000000000D+00 0.000000000000D+00
 1 12 11 25 20  0  0.0 0.284264329821D-03 0.193267624127D-11 0.000000000000D+00
    0.270000000000D+02-0.251562500000D+02 0.481770067657D-08-0.191073400839D+01
   -0.142864882946D-05 0.143797032069D-02 0.754743814468D-05 0.515370697022D+04
    0.720000000000D+05 0.651925802231D-07 0.179386432256D+01 0.000000000000D+00
    0.959696175975D+00 0.233375000000D+03 0.525720320853D+00-0.807640784338D-08
   -0.398945189097D-09 0.000000000000D+00 0.171600000000D+04 0.000000000000D+00
    0.200000000000D+01 0.000000000000D+00 0.838190317154D-08 0.270000000000D+02
    0.648000000000D+05 0.400000000000D+01 0.000000000000D+00 0.000000000000D+00
 2 12 11 25 20  0  0.0 0.409940257669D-03 0.102318153950D-11 0.000000000000D+00
    0.183000000000D+03-0.320625000000D+02 0.539593925097D-08-0.907349719421D+00
   -0.158697366715D-05 0.116226449609D-01 0.685267150402D-05 0.515378783608D+04
    0.720000000000D+05 0.268220901489D-06 0.177620370633D+01-0.223517417908D-07
    0.938211537236D+00 0.233437500000D+03-0.271879651059D+01-0.839713543144D-08
   -0.393587828995D-09 0.100000000000D+01 0.171600000000D+04 0.000000000000D+00
    0.200000000000D+01 0.000000000000D+00-0.176951289177D-07 0.183000000000D+03
    0.720000000000D+05 0.000000000000D+00 0.499063314480-269 0.664593648549-315
 3 12 11 25 20  0  0.0 0.133336056024D-03 0.511590769747D-11 0.000000000000D+00
    0.320000000000D+02 0.249687500000D+02 0.549737184475D-08-0.719458054076D+00
    0.154785811901D-05 0.158704079222D-01 0.662170350552D-05 0.515375225067D+04
    0.720000000000D+05-0.102445483208D-06 0.608976774967D+00 0.223517417908D-06
    0.932757269541D+00 0.241281250000D+03 0.125556032857D+01-0.872714923508D-08
    0.521093134192D-09 0.000000000000D+00 0.171600000000D+04 0.000000000000D+00
    0.200000000000D+01 0.000000000000D+00-0.465661287308D-08 0.320000000000D+02
    0.648000000000D+05 0.400000000000D+01 0.000000000000D+00 0.000000000000D+00
 4 12 11 25 20  0  0.0 0.568293035030D-04 0.111413100967D-10 0.000000000000D+00
    0.560000000000D+02-0.375937500000D+02 0.532665044780D-08 0.238949889112D+01
   -0.205636024475D-05 0.104144049110D-01 0.748224556446D-05 0.515369373322D+04
    0.720000000000D+05-0.558793544769D-08 0.179286216955D+01-0.219792127609D-06
    0.937266565303D+00 0.223156250000D+03 0.937549492197D+00-0.818998400285D-08
   -0.451090218290D-09 0.000000000000D+00 0.171600000000D+04 0.000000000000D+00
    0.200000000000D+01 0.000000000000D+00-0.651925802231D-08 0.560000000000D+02
    0.686100000000D+05 0.400000000000D+01 0.000000000000D+00 0.000000000000D+00
 5 12 11 25 20  0  0.0-0.368918292224D-03-0.238742359215D-11 0.000000000000D+00
    0.520000000000D+02 0.780625000000D+02 0.458769111589D-08 0.120157558663D+01
    0.430271029472D-05 0.309421762358D-02 0.110641121864D-04 0.515380185127D+04
    0.720000000000D+05 0.372529029846D-07 0.284035421981D+01 0.260770320892D-07
    0.950160223473D+00 0.158343750000D+03 0.278938760953D+00-0.800033284065D-08
   -0.174292968946D-09 0.100000000000D+01 0.171600000000D+04 0.000000000000D+00
    0.200000000000D+01 0.000000000000D+00-0.102445483208D-07 0.520000000000D+02
    0.720000000000D+05 0.000000000000D+00 0.499063314480-269 0.664593648549-315
 6 12 11 25 20  0  0.0 0.445187091827D-03-0.122781784739D-10 0.000000000000D+00
    0.540000000000D+02 0.198437500000D+02 0.529236330532D-08 0.117465842794D+01
    0.101886689663D-05 0.743409502320D-02 0.578537583351D-05 0.515367994499D+04
    0.720000000000D+05 0.169500708580D-06 0.687027543352D+00 0.763684511185D-07
    0.939441007237D+00 0.256125000000D+03-0.412333074939D+00-0.836892002768D-08
    0.390016245742D-09 0.000000000000D+00 0.171600000000D+04 0.000000000000D+00
    0.200000000000D+01 0.000000000000D+00-0.512227416039D-08 0.540000000000D+02
    0.648000000000D+05 0.400000000000D+01 0.000000000000D+00 0.000000000000D+00
 7 12 11 25 20  0  0.0 0.149769242853D-03 0.443378667114D-11 0.000000000000D+00
    0.290000000000D+02-0.105156250000D+03 0.415231581776D-08-0.227406291036D+01
   -0.548548996448D-05 0.605953042395D-02 0.495463609695D-05 0.515371760368D+04
    0.720000000000D+05-0.149011611938D-07-0.132854213116D+01-0.465661287308D-07
    0.975606347817D+00 0.292125000000D+03-0.292953495379D+01-0.802604860285D-08
   -0.281440294547D-09 0.000000000000D+00 0.171600000000D+04 0.000000000000D+00
    0.200000000000D+01 0.000000000000D+00-0.111758708954D-07 0.290000000000D+02
    0.648000000000D+05 0.400000000000D+01 0.000000000000D+00 0.000000000000D+00
 8 12 11 25 20  0  0.0 0.306032598019D-05 0.227373675443D-12 0.000000000000D+00
    0.540000000000D+02-0.118937500000D+03 0.362729394850D-08-0.288811928654D+01
   -0.615045428276D-05 0.127514160704D-01 0.596977770328D-05 0.515363059998D+04
    0.720000000000D+05-0.130385160446D-06-0.124123654948D+01-0.875443220139D-07
    0.998092225245D+00 0.283281250000D+03-0.289551392489D+01-0.763317509524D-08
   -0.336799743347D-09 0.000000000000D+00 0.171600000000D+04 0.000000000000D+00
    0.200000000000D+01 0.000000000000D+00-0.419095158577D-08 0.540000000000D+02
    0.648000000000D+05 0.400000000000D+01 0.000000000000D+00 0.000000000000D+00
 9 12 11 25 20  0  0.0 0.202236697078D-03 0.261479726760D-11 0.000000000000D+00
    0.770000000000D+02-0.994375000000D+02 0.388944772540D-08-0.274466882979D+01
   -0.496767461300D-05 0.170413710875D-01 0.412575900555D-05 0.515284822655D+04
    0.720000000000D+05 0.176951289177D-06-0.135299211801D+01 0.260770320892D-07
    0.984280011053D+00 0.310843750000D+03 0.163270883393D+01-0.765531887476D-08
   -0.291797868838D-09 0.100000000000D+01 0.171600000000D+04 0.000000000000D+00
    0.200000000000D+01 0.000000000000D+00-0.558793544769D-08 0.770000000000D+02
    0.648180000000D+05 0.400000000000D+01 0.000000000000D+00 0.000000000000D+00
10 12 11 25 20  0  0.0-0.598090700805D-04-0.147792889038D-11 0.000000000000D+00
    0.650000000000D+02 0.796250000000D+02 0.473698302864D-08 0.152002014603D+01
    0.426173210144D-05 0.120230424218D-01 0.115446746349D-04 0.515375010109D+04
    0.720000000000D+05-0.236555933952D-06 0.286084518754D+01 0.126659870148D-06
    0.945022899906D+00 0.150687500000D+03 0.776146897679D+00-0.816641159239D-08
   -0.162149611325D-09 0.000000000000D+00 0.171600000000D+04 0.000000000000D+00
    0.280000000000D+01 0.000000000000D+00-0.279396772385D-08 0.650000000000D+02
    0.716700000000D+05 0.400000000000D+01 0.000000000000D+00 0.000000000000D+00
11 12 11 25 20  0  0.0-0.326892826706D-03-0.386535248253D-11 0.000000000000D+00
    0.520000000000D+02-0.283750000000D+02 0.654955852969D-08-0.208713749363D+01
   -0.154972076416D-05 0.137682162458D-01 0.469759106636D-05 0.515367391777D+04
    0.720000000000D+05 0.195577740669D-06 0.151033626032D+01 0.558793544769D-08
    0.887945528667D+00 0.243625000000D+03 0.112469815315D+01-0.883322508214D-08
   -0.116076263614D-09 0.000000000000D+00 0.171600000000D+04 0.000000000000D+00
    0.200000000000D+01 0.000000000000D+00-0.116415321827D-07 0.520000000000D+02
    0.648000000000D+05 0.400000000000D+01 0.000000000000D+00 0.000000000000D+00
12 12 11 25 20  0  0.0 0.103549100459D-03 0.204636307899D-11 0.000000000000D+00
    0.510000000000D+02-0.487187500000D+02 0.365050920122D-08-0.257474338718D+01
   -0.247173011303D-05 0.404336757492D-02 0.110659748316D-04 0.515367403793D+04
    0.720000000000D+05-0.167638063431D-07-0.271149153742D+00-0.149011611938D-07
    0.982378706165D+00 0.177500000000D+03 0.142955493047D+00-0.748102590047D-08
    0.337156901081D-09 0.100000000000D+01 0.171600000000D+04 0.000000000000D+00
    0.200000000000D+01 0.000000000000D+00-0.121071934700D-07 0.510000000000D+02
    0.648180000000D+05 0.400000000000D+01 0.000000000000D+00 0.000000000000D+00
